NORAD_CAT_ID,OBJECT_NAME,OBJECT_TYPE,EPOCH,MEAN_MOTION,ECCENTRICITY,INCLINATION,RA_OF_ASC_NODE,ARG_OF_PERICENTER,MEAN_ANOMALY,BSTAR,MEAN_MOTION_DOT,MEAN_MOTION_DDOT,TLE_LINE0,TLE_LINE1,TLE_LINE2,SEMIMAJOR_AXIS,PERIOD,APOGEE,PERIGEE,DECAYED
52548.0,STARLINK-3931,PAYLOAD,2022-08-10 22:00:00,15.08816203,0.0001413,53.2158,235.4352,64.4507,165.3303,0.0025199,0.00040018,0.0,0 STARLINK-3931,1 52548U 22051R   22222.91667824  .00040018  00000-0  25199-2 0  9998,2 52548  53.2158 235.4352 0001413  64.4507 165.3303 15.08816203  1308,6917.953,95.439,540.7959999999998,538.841,0.0
52548.0,STARLINK-3931,PAYLOAD,2022-08-11 06:00:02,15.08850308,0.0001629,53.2158,233.9401,69.4425,172.0536,-0.0026501999999999,-0.00042231,0.0,0 STARLINK-3931,1 52548U 22051R   22223.25002315 -.00042231  00000-0 -26502-2 0  9994,2 52548  53.2158 233.9401 0001629  69.4425 172.0536 15.08850308 14298,6917.849,95.437,540.841,538.587,0.0
52548.0,STARLINK-3931,PAYLOAD,2022-08-11 14:00:01,15.08836764,0.0001652,53.2153,232.4438,66.4879,186.5314,-0.00058623,-9.605e-05,0.0,0 STARLINK-3931,1 52548U 22051R   22223.58334491 -.00009605  00000-0 -58623-3 0  9991,2 52548  53.2153 232.4438 0001652  66.4879 186.5314 15.08836764  1305,6917.89,95.438,540.898,538.612,0.0
52548.0,STARLINK-3931,PAYLOAD,2022-08-11 22:00:00,15.08811671,0.0001591,53.2153,230.9458,74.84899999999998,189.7655,0.0026125999999999,0.00041504,0.0,0 STARLINK-3931,1 52548U 22051R   22223.91667824  .00041504  00000-0  26126-2 0  9991,2 52548  53.2153 230.9458 0001591  74.8490 189.7655 15.08811671 14390,6917.967,95.439,540.933,538.731,0.0
52548.0,STARLINK-3931,PAYLOAD,2022-08-12 14:00:01,15.08850152,0.0001672,53.2151,227.9544,66.7773,221.0073,-0.0010133,-0.00016383,0.0,0 STARLINK-3931,1 52548U 22051R   22224.58334491 -.00016383  00000-0 -10133-2 0  9996,2 52548  53.2151 227.9544 0001672  66.7773 221.0073 15.08850152  1302,6917.849,95.437,540.871,538.558,0.0
52548.0,STARLINK-3931,PAYLOAD,2022-08-12 22:00:01,15.08824678,0.0001614,53.2153,226.4563,74.81,224.6419,0.0020789,0.00032939,0.0,0 STARLINK-3931,1 52548U 22051R   22224.91668981  .00032939  00000-0  20789-2 0  9998,2 52548  53.2153 226.4563 0001614  74.8100 224.6419 15.08824678  1306,6917.927,95.439,540.909,538.6759999999998,0.0
52548.0,STARLINK-3931,PAYLOAD,2022-08-13 14:00:01,15.08830507,0.0001609,53.2155,223.4649,64.2406,258.3135,-0.0015025,-0.00024115,0.0,0 STARLINK-3931,1 52548U 22051R   22225.58334491 -.00024115  00000-0 -15025-2 0  9994,2 52548  53.2155 223.4649 0001609  64.2406 258.3135 15.08830507  1303,6917.909000000002,95.438,540.887,538.661,0.0
52548.0,STARLINK-3931,PAYLOAD,2022-08-13 22:00:00,15.08799802,0.0001588,53.2158,221.967,72.5913,261.5422,0.0027391,0.00043526,0.0,0 STARLINK-3931,1 52548U 22051R   22225.91667824  .00043526  00000-0  27391-2 0  9994,2 52548  53.2158 221.9670 0001588  72.5913 261.5422 15.08799802  1301,6918.003000000002,95.44,540.967,538.77,0.0
52548.0,STARLINK-3931,PAYLOAD,2022-08-14 14:00:01,15.08844359,0.0001685,53.2162,218.9756,64.1383,293.1376,-0.0016465999999999,-0.00026401,0.0,0 STARLINK-3931,1 52548U 22051R   22226.58334491 -.00026401  00000-0 -16466-2 0  9995,2 52548  53.2162 218.9756 0001685  64.1383 293.1376 15.08844359 14797,6917.8669999999975,95.437,540.898,538.566,0.0
52548.0,STARLINK-3931,PAYLOAD,2022-08-14 22:00:00,15.08815729,0.000166,53.2166,217.4779,72.2209,296.6489,0.0026826999999999,0.00042637,0.0,0 STARLINK-3931,1 52548U 22051R   22226.91667824  .00042637  00000-0  26827-2 0  9990,2 52548  53.2166 217.4779 0001660  72.2209 296.6489 15.08815729  1305,6917.955,95.439,540.9680000000002,538.6709999999998,0.0
52548.0,STARLINK-3931,PAYLOAD,2022-08-15 06:00:00,15.08842674,0.0001795,53.2168,215.9832,65.9683,314.4865,-0.00084545,-0.00013719,0.0,0 STARLINK-3931,1 52548U 22051R   22227.25001157 -.00013719  00000-0 -84545-3 0  9992,2 52548  53.2168 215.9832 0001795  65.9683 314.4865 15.08842674 14898,6917.871999999999,95.437,540.979,538.495,0.0
52548.0,STARLINK-3931,PAYLOAD,2022-08-15 14:00:01,15.08856801,0.0001751999999999,53.217,214.4864,64.815,327.2257,-0.0018507999999999,-0.00029637,0.0,0 STARLINK-3931,1 52548U 22051R   22227.58334491 -.00029637  00000-0 -18508-2 0  9999,2 52548  53.2170 214.4864 0001752  64.8150 327.2257 15.08856801  1306,6917.829000000002,95.436,540.906,538.482,0.0
52548.0,STARLINK-3931,PAYLOAD,2022-08-15 22:00:00,15.08830755,0.0001718,53.2173,212.9888,72.6297,331.0172,0.0023322,0.00037015,0.0,0 STARLINK-3931,1 52548U 22051R   22227.91667824  .00037015  00000-0  23322-2 0  9992,2 52548  53.2173 212.9888 0001718  72.6297 331.0172 15.08830755  1308,6917.909000000002,95.438,540.962,538.585,0.0
52548.0,STARLINK-3931,PAYLOAD,2022-08-16 00:00:00,15.08851582,0.0001745,53.2176,212.615,72.5937,63.9461,0.00020575,2.989e-05,0.0,0 STARLINK-3931,1 52548U 22051R   22228.00001157  .00002989  00000-0  20575-3 0  9994,2 52548  53.2176 212.6150 0001745  72.5937  63.9461 15.08851582 15005,6917.845,95.437,540.9169999999998,538.503,0.0
52548.0,STARLINK-3931,PAYLOAD,2022-08-16 14:00:01,15.08878982,0.0001720999999999,53.2174,209.9973,65.4044,1.4458,-0.0050066,-0.00079178,0.0,0 STARLINK-3931,1 52548U 22051R   22228.58334491 -.00079178  00000-0 -50066-2 0  9990,2 52548  53.2174 209.9973 0001721  65.4044   1.4458 15.08878982  1303,6917.761,95.435,540.817,538.436,0.0
52548.0,STARLINK-3931,PAYLOAD,2022-08-16 22:00:00,15.08818645,0.0001619,53.2177,208.4999,72.75,5.71,0.0019805,0.00031354,0.0,0 STARLINK-3931,1 52548U 22051R   22228.91667824  .00031354  00000-0  19805-2 0  9994,2 52548  53.2177 208.4999 0001619  72.7500   5.7100 15.08818645 15140,6917.946,95.439,540.931,538.691,0.0
52548.0,STARLINK-3931,PAYLOAD,2022-08-17 14:00:01,15.08851177,0.0001656,53.2174,205.5084,66.8531,34.7689,-0.0019322,-0.00030917,0.0,0 STARLINK-3931,1 52548U 22051R   22229.58334491 -.00030917  00000-0 -19322-2 0  9999,2 52548  53.2174 205.5084 0001656  66.8531  34.7689 15.08851177 15241,6917.846,95.437,540.857,538.566,0.0
52548.0,STARLINK-3931,PAYLOAD,2022-08-17 16:00:00,15.08841984,0.00016,53.2175,205.1338,69.6307,124.8937,-0.00073612,-0.00011985,0.0,0 STARLINK-3931,1 52548U 22051R   22229.66667824 -.00011985  00000-0 -73612-3 0  9994,2 52548  53.2175 205.1338 0001600  69.6307 124.8937 15.08841984  1305,6917.874,95.437,540.846,538.632,0.0
52548.0,STARLINK-3931,PAYLOAD,2022-08-18 08:00:01,15.08830575,0.0001718,53.2173,202.1428,65.8032,151.9256,0.002846,0.00045286,0.0,0 STARLINK-3931,1 52548U 22051R   22230.33334491  .00045286  00000-0  28460-2 0  9990,2 52548  53.2173 202.1428 0001718  65.8032 151.9256 15.08830575 15363,6917.909000000002,95.438,540.9630000000002,538.586,0.0
52548.0,STARLINK-3931,PAYLOAD,2022-08-18 14:00:01,15.08873349,0.0001631999999999,53.2169,201.0195,69.653,66.7714,-0.0018944,-0.00030338,0.0,0 STARLINK-3931,1 52548U 22051R   22230.58334491 -.00030338  00000-0 -18944-2 0  9997,2 52548  53.2169 201.0195 0001632  69.6530  66.7714 15.08873349  1304,6917.778,95.435,540.7719999999998,538.514,0.0
52548.0,STARLINK-3931,PAYLOAD,2022-08-18 22:00:00,15.08859707,0.0001568,53.217,199.5224,76.8708,71.1754,-0.00096093,-0.00015557,0.0,0 STARLINK-3931,1 52548U 22051R   22230.91667824 -.00015557  00000-0 -96093-3 0  9991,2 52548  53.2170 199.5224 0001568  76.8708  71.1754 15.08859707 15441,6917.82,95.436,540.77,538.6,0.0
52548.0,STARLINK-3931,PAYLOAD,2022-08-19 14:00:01,15.0883869,0.000144,53.2163,196.5305,68.6458,102.596,-0.0021755,-0.00034743,0.0,0 STARLINK-3931,1 52548U 22051R   22231.58334491 -.00034743  00000-0 -21755-2 0  9996,2 52548  53.2163 196.5305 0001440  68.6458 102.5960 15.08838690  1306,6917.884,95.438,540.746,538.753,0.0
52548.0,STARLINK-3931,PAYLOAD,2022-08-19 22:00:00,15.0882566,0.0001463,53.2164,195.0337,75.7094,107.1056,0.00081568,0.00012712,0.0,0 STARLINK-3931,1 52548U 22051R   22231.91667824  .00012712  00000-0  81568-3 0  9991,2 52548  53.2164 195.0337 0001463  75.7094 107.1056 15.08825660  1306,6917.924,95.438,540.8009999999998,538.7769999999998,0.0
52548.0,STARLINK-3931,PAYLOAD,2022-08-20 08:00:01,15.08806932,0.000155,53.2161,193.1652,64.4957,222.7999,0.0030358,0.00048314,0.0,0 STARLINK-3931,1 52548U 22051R   22232.33334491  .00048314  00000-0  30358-2 0  9996,2 52548  53.2161 193.1652 0001550  64.4957 222.7999 15.08806932 15667,6917.981,95.44,540.919,538.774,0.0
52548.0,STARLINK-3931,PAYLOAD,2022-08-20 14:00:01,15.08849078,0.0001476999999999,53.216,192.0415,68.9756,137.0001,-0.0014697,-0.00023608,0.0,0 STARLINK-3931,1 52548U 22051R   22232.58334491 -.00023608  00000-0 -14697-2 0  9992,2 52548  53.2160 192.0415 0001477  68.9756 137.0001 15.08849078  1301,6917.853,95.437,540.739,538.696,0.0
52548.0,STARLINK-3931,PAYLOAD,2022-08-20 22:00:00,15.08844986,0.0001515,53.2161,190.5447,74.8245,142.74,0.00056103,8.653e-05,0.0,0 STARLINK-3931,1 52548U 22051R   22232.91667824  .00008653  00000-0  56103-3 0  9998,2 52548  53.2161 190.5447 0001515  74.8245 142.7400 15.08844986  1301,6917.865,95.437,540.778,538.682,0.0
52548.0,STARLINK-3931,PAYLOAD,2022-08-21 14:00:01,15.0883604,0.0001434,53.2161,187.5523,66.6613,174.0982,-0.001307,-0.00021026,0.0,0 STARLINK-3931,1 52548U 22051R   22233.58334491 -.00021026  00000-0 -13070-2 0  9999,2 52548  53.2161 187.5523 0001434  66.6613 174.0982 15.08836040 15850,6917.892,95.438,540.75,538.765,0.0
52548.0,STARLINK-3931,PAYLOAD,2022-08-21 22:00:00,15.08836317,0.0001492,53.2163,186.0556,72.3187,180.0143,0.00017672,2.525e-05,0.0,0 STARLINK-3931,1 52548U 22051R   22233.91667824  .00002525  00000-0  17672-3 0  9999,2 52548  53.2163 186.0556 0001492  72.3187 180.0143 15.08836317  1304,6917.892,95.438,540.789,538.724,0.0
52548.0,STARLINK-3931,PAYLOAD,2022-08-22 06:00:00,15.08817582,0.0001624,53.2165,184.561,62.8933,201.0357,0.0022846,0.00036236,0.0,0 STARLINK-3931,1 52548U 22051R   22234.25001157  .00036236  00000-0  22846-2 0  9992,2 52548  53.2165 184.5610 0001624  62.8933 201.0357 15.08817582 15950,6917.949000000001,95.439,540.937,538.69,0.0
